{
  "norad_id": 68600,
  "name": "KUIPER-00317",
  "history": [
    {
      "epoch": "2026-05-05T10:50:04.576704Z",
      "apogee_km": 460.775348744628,
      "perigee_km": 448.28250236634267,
      "latitude_deg": -1.3011540986491057e-05,
      "longitude_deg": -2.1103140523386132,
      "height_km": 460.5579337211916,
      "semi_major_axis_km": 6832.665925555485,
      "eccentricity": 0.0009142,
      "inclination_deg": 51.8691,
      "raan_deg": 23.735,
      "arg_perigee_deg": 212.5938,
      "mean_anomaly_deg": 147.4485,
      "mean_motion_rev_day": 15.37154361
    },
    {
      "epoch": "2026-05-06T10:14:22.399296Z",
      "apogee_km": 460.305332738154,
      "perigee_km": 448.63346453162103,
      "latitude_deg": 4.042719181231855e-05,
      "longitude_deg": 1.1426559482542569,
      "height_km": 459.7719220229298,
      "semi_major_axis_km": 6832.606398634887,
      "eccentricity": 0.00085413,
      "inclination_deg": 51.8703,
      "raan_deg": 19.0234,
      "arg_perigee_deg": 218.993,
      "mean_anomaly_deg": 141.0442,
      "mean_motion_rev_day": 15.37174449
    },
    {
      "epoch": "2026-05-07T09:38:38.463648Z",
      "apogee_km": 460.27882109315397,
      "perigee_km": 448.50364193895984,
      "latitude_deg": 3.0629805799047816e-05,
      "longitude_deg": 4.400622810570846,
      "height_km": 459.3718341560815,
      "semi_major_axis_km": 6832.528231516057,
      "eccentricity": 0.0008617,
      "inclination_deg": 51.871,
      "raan_deg": 14.3095,
      "arg_perigee_deg": 224.3022,
      "mean_anomaly_deg": 135.7276,
      "mean_motion_rev_day": 15.37200828
    },
    {
      "epoch": "2026-05-08T19:58:11.557344Z",
      "apogee_km": 460.15512346399373,
      "perigee_km": 448.34056359256374,
      "latitude_deg": -1.6929854690128482e-05,
      "longitude_deg": -158.81302207846426,
      "height_km": 458.8191560195081,
      "semi_major_axis_km": 6832.384843528278,
      "eccentricity": 0.0008646,
      "inclination_deg": 51.8699,
      "raan_deg": 7.3935,
      "arg_perigee_deg": 229.9109,
      "mean_anomaly_deg": 130.112,
      "mean_motion_rev_day": 15.37249219
    },
    {
      "epoch": "2026-05-09T19:22:24.114720Z",
      "apogee_km": 460.17624531102865,
      "perigee_km": 448.21283278615465,
      "latitude_deg": -4.791427090410892e-05,
      "longitude_deg": -155.54011783243394,
      "height_km": 458.5513182812453,
      "semi_major_axis_km": 6832.331539048591,
      "eccentricity": 0.0008755,
      "inclination_deg": 51.8702,
      "raan_deg": 2.6799,
      "arg_perigee_deg": 233.1246,
      "mean_anomaly_deg": 126.8938,
      "mean_motion_rev_day": 15.37267209
    },
    {
      "epoch": "2026-05-10T20:20:12.126048Z",
      "apogee_km": 460.11580157823755,
      "perigee_km": 448.14566850644223,
      "latitude_deg": -2.146694378390415e-05,
      "longitude_deg": -176.04535342486432,
      "height_km": 458.016613213248,
      "semi_major_axis_km": 6832.267735042339,
      "eccentricity": 0.000876,
      "inclination_deg": 51.8701,
      "raan_deg": 357.6499,
      "arg_perigee_deg": 238.5977,
      "mean_anomaly_deg": 121.4153,
      "mean_motion_rev_day": 15.37288743
    },
    {
      "epoch": "2026-05-11T21:17:58.634016Z",
      "apogee_km": 459.9691108057177,
      "perigee_km": 448.1262019223759,
      "latitude_deg": 4.5720296273173444e-05,
      "longitude_deg": 163.45632491373013,
      "height_km": 457.6968516266173,
      "semi_major_axis_km": 6832.1846563640465,
      "eccentricity": 0.0008667,
      "inclination_deg": 51.8709,
      "raan_deg": 352.6205,
      "arg_perigee_deg": 240.8793,
      "mean_anomaly_deg": 119.1327,
      "mean_motion_rev_day": 15.37316783
    }
  ]
}